#aV2009  5 24  0  0   .00000000      96 DD+AD WGS84 FIT  NGA
## 1533       .00000000   900.00000000 54975  .0000000000000
+   31     2  3  4  5  6  7  8  9 10 11 12 13 14 15 16 17 18
+         19 20 21 22 23 24 25 26 27 28 29 30 31 32  0  0  0
+          0  0  0  0  0  0  0  0  0  0  0  0  0  0  0  0  0
+          0  0  0  0  0  0  0  0  0  0  0  0  0  0  0  0  0
+          0  0  0  0  0  0  0  0  0  0  0  0  0  0  0  0  0
++         0  0  0  0  0  0  0  0  0  0  0  0  0  0  0  0  0
++         0  0  0  0  0  0  0  0  0  0  0  0  0  0  0  0  0
++         0  0  0  0  0  0  0  0  0  0  0  0  0  0  0  0  0
++         0  0  0  0  0  0  0  0  0  0  0  0  0  0  0  0  0
++         0  0  0  0  0  0  0  0  0  0  0  0  0  0  0  0  0
%c cc cc ccc ccc cccc cccc cccc cccc ccccc ccccc ccccc ccccc
%c cc cc ccc ccc cccc cccc cccc cccc ccccc ccccc ccccc ccccc
%f  0.0000000  0.000000000  0.00000000000  0.000000000000000
%f  0.0000000  0.000000000  0.00000000000  0.000000000000000
%i    0    0    0    0      0      0      0      0         0
%i    0    0    0    0      0      0      0      0         0
/*      NGA, ST. LOUIS,MO.                                  
/*   EPHEMERIS COMPUTED FROM  3 DAYS OF DATA                
/* CCCCCCCCCCCCCCCCCCCCCCCCCCCCCCCCCCCCCCCCCCCCCCCCCCCCCCCCC
/* CCCCCCCCCCCCCCCCCCCCCCCCCCCCCCCCCCCCCCCCCCCCCCCCCCCCCCCCC
*  2009  5 24 11 15   .00000000                                                 
P  2  19708.381699 -13041.572297  11602.238232    154.721765                    
V  2  15408.351393   -139.417980 -26530.956266       .007078                    
P  3  -9602.263442  23707.003889   6121.209901    397.224500                    
V  3  -2344.191960  -8945.423086  29845.830312       .050311                    
P  4  26123.823674  -5765.222204    602.482435   -103.931610                    
V  4   1521.954735   2888.645799 -31056.353873      -.155836                    
P  5 -12160.156332 -21409.463987 -10420.311180    -95.411178                    
V  5  11233.110164   6661.298044 -27485.777372      -.211941                    
P  6 -13719.321940  20224.272738  10524.184494    135.148016                    
V  6    435.475499 -13535.733042  27137.202581       .146972                    
P  7  18273.576218   8417.152411  17379.199707     18.319021                    
V  7 -21273.109455   5986.021977  19327.222984      -.006527                    
P  8  25982.052972    583.915745   6595.728495   -204.556954                    
V  8  -8010.157654   2627.294641  30593.868954      -.018452                    
P  9   -514.186899 -15382.720064 -22296.437797     57.490707                    
V  9  26006.040988  -6077.034693   3796.055590       .019686                    
P 10   6802.941330 -14620.225974  20880.723661    -16.486128                    
V 10  18200.753760  19922.634000   8284.998818      -.005281                    
P 11   3987.049495  16505.069931 -20599.011882     -3.750106                    
V 11 -24119.107823   9929.918095   3679.690602      -.013945                    
P 12  -9964.794622 -22264.457470 -10588.049450   -276.726643                    
V 12  10613.364463   8630.372938 -27830.416147       .054227                    
P 13   8810.500613  14110.823382  20574.819605    297.851520                    
V 13 -10278.560672  24257.031297 -12156.398674       .008985                    
P 14 -16035.584190   4165.455024 -20610.558099   -105.700151                    
V 14   8459.975775 -25020.456397 -11684.282426       .059410                    
P 15   6778.192280 -25590.686070  -1659.995451   -294.673491                    
V 15   3516.804426  -1140.733189  31598.345605      -.036020                    
P 16 -10893.434220  10442.095368  21910.135431     48.268552                    
V 16 -18132.669587 -20889.632423   1179.277561      -.033559                    
P 17  16248.734182  -2393.654748 -20764.238691     60.666236                    
V 17  -7848.616678  25407.171575  -9226.726696       .019732                    
P 18 -20197.175327 -15939.017104  -7112.122288    -54.208524                    
V 18  -3720.470776  -8970.627005  29354.608010       .032642                    
P 19  -7084.309857  25085.871520  -4261.592979     24.734069                    
V 19  -4983.646979   3932.870155  31212.251967      -.011487                    
P 20  11645.925834  22117.581985  -9164.481094     81.790616                    
V 20 -10062.819745  -6293.964507 -28334.276151      -.010245                    
P 21 -21476.222761  -6991.623505  14715.420954     12.259121                    
V 21  17343.948010  -5502.730597  22473.350066      -.020839                    
P 22 -20252.920636  -6122.259315 -15943.894678    199.005075                    
V 22 -11389.884244 -17275.276716  20823.251864      -.010130                    
P 23   1777.794764  22882.119892  13065.788823    390.110711                    
V 23  -7446.497033  15188.069075 -25763.044913       .000871                    
P 24  -7935.841213 -14056.772206  21185.119792    191.336314                    
V 24  26231.670764  -4897.702537   6872.075590       .030080                    
P 25  11279.639047  11774.122026  21271.868442    428.302693                    
V 25 -24843.616555   8450.710350   8828.919957       .190640                    
P 26  -1115.330127 -22526.920770 -14158.147951     61.887695                    
V 26   7736.009681 -15429.588062  25414.774619       .011454                    
P 27   8217.696896 -15669.123412 -19137.795435     51.640700                    
V 27  25174.896732  -5495.058578  14766.739433       .030827                    
P 28  20422.212184   9095.619742 -14145.982544    -24.988749                    
V 28  10489.986168  15443.810392  24030.247811      -.002407                    
P 29  -8807.646014 -15922.682799  19469.805903     23.198826                    
V 29   9402.958153 -22639.218048 -14300.266613       .038227                    
P 30 -17783.564374 -19757.355393  -1482.751403    148.560307                    
V 30   3161.550279  -1067.188517 -31432.879301       .028450                    
P 31 -25388.444442   7519.757424   3118.620846    -60.936124                    
V 31  -4074.352520  -1462.672964 -31607.558391      -.008004                    
P 32   3342.823560  21601.742559 -14865.197607    257.165303                    
V 32 -13247.134104 -14400.097020 -23040.960940      -.052737                    
EOF
